SatCatId,ObjectName,LaunchYear,OrbitalPeriod,LaunchMass,StatusCode,Inclination,Status,UcsData,OrbitClassEstimated,LaunchSiteCountry,Owner,UseType,Purpose,LaunchVehicleClass,TLE1,TLE2,MeanMotion,Eccentricity,OrbitClass
47400,STARLINK-2122,2021,95.59,260.0,+,53.06,Active,1,LEO,USA,USA,Commercial,Communications,Falcon,1 47400U 21005BD  23276.59492481  .00034084  00000+0  22934-2 0  9995,2 47400  53.0559  48.4398 0001535  83.9122 276.2042 15.06442604149749,15.06442604,0.0001535,LEO
47401,STARLINK-2123,2021,95.59,260.0,+,53.06,Active,1,LEO,USA,USA,Commercial,Communications,Falcon,1 47401U 21005BE  23276.61243442  .00004767  00000+0  33875-3 0  9992,2 47401  53.0557  58.3514 0001161  64.4396 295.6713 15.06392162149619,15.06392162,0.0001161,LEO
47402,STARLINK-2124,2021,95.59,260.0,+,53.06,Active,1,LEO,USA,USA,Commercial,Communications,Falcon,1 47402U 21005BF  23276.56451868  .00029130  00000+0  19652-2 0  9997,2 47402  53.0559  58.5682 0001349  82.9491 277.1651 15.06423295149606,15.06423295,0.0001349,LEO
47403,STARLINK-2127,2021,95.59,260.0,+,53.06,Active,1,LEO,USA,USA,Commercial,Communications,Falcon,1 47403U 21005BG  23276.57188941  .00027831  00000+0  18787-2 0  9992,2 47403  53.0549  58.5349 0001679  76.7948 283.3229 15.06424204149601,15.06424204,0.0001679,LEO
47404,STARLINK-2128,2021,95.59,260.0,+,53.06,Active,1,LEO,USA,USA,Commercial,Communications,Falcon,1 47404U 21005BH  23276.56820379  .00028981  00000+0  19548-2 0  9993,2 47404  53.0551  58.5508 0001631  87.4980 272.6196 15.06432050149607,15.0643205,0.0001631,LEO
47405,STARLINK-2130,2021,95.59,260.0,+,53.05,Active,1,LEO,USA,USA,Commercial,Communications,Falcon,1 47405U 21005BJ  23276.48435840  .00021628  00000+0  14657-2 0  9997,2 47405  53.0542  88.9291 0001287  76.7569 283.3563 15.06418777149163,15.06418777,0.0001287,LEO
47406,STARLINK-2133,2021,95.59,260.0,+,53.05,Active,1,LEO,USA,USA,Commercial,Communications,Falcon,1 47406U 21005BK  23276.57925921  .00028500  00000+0  19230-2 0  9990,2 47406  53.0543  58.5020 0001426  82.1262 277.9889 15.06428487149602,15.06428487,0.0001426,LEO
47407,STARLINK-2134,2021,95.59,260.0,+,53.05,Active,1,LEO,USA,USA,Commercial,Communications,Falcon,1 47407U 21005BL  23276.58662990  .00028813  00000+0  19437-2 0  9992,2 47407  53.0550  58.4649 0001410  83.6132 276.5017 15.06431275149609,15.06431275,0.000141,LEO
47408,STARLINK-2135,2021,95.59,260.0,+,53.06,Active,1,LEO,USA,USA,Commercial,Communications,Falcon,1 47408U 21005BM  23276.62348936  .00029631  00000+0  19977-2 0  9997,2 47408  53.0558  58.3026 0001467  82.6936 277.4220 15.06438289149618,15.06438289,0.0001467,LEO
47429,SPACEBEE-62,2021,93.5,2.0,+,97.37,Active,1,LEO,USA,USA,Commercial,Communications,Falcon,1 47429U 21006S   23276.45382489  .00061685  00000+0  15292-2 0  9994,2 47429  97.3720 337.0782 0008359  52.3625 307.8378 15.40137262149465,15.40137262,0.0008359,LEO
47430,ASTROCAST-0101,2021,94.7,4.0,+,97.38,Active,1,LEO,USA,Switzerland,Commercial,Communications,Falcon,1 47430U 21006T   23276.55968182  .00011249  00000+0  51525-3 0  9998,2 47430  97.3826 329.4752 0010386  88.2517 271.9908 15.20600733147887,15.20600733,0.0010386,LEO
47438,UVSQ-SAT,2021,94.22,1.0,+,97.37,Active,1,LEO,USA,France,Civil,Technology Development,Falcon,1 47438U 21006AB  23276.41309292  .00025047  00000+0  90852-3 0  9999,2 47438  97.3712 332.1620 0010120  66.1892 294.0407 15.28277986149151,15.28277986,0.001012,LEO
47439,YUSAT-1,2021,93.99,-1.0,+,97.37,Active,0,LEO,USA,Taiwan,Unknown,Unknown,Falcon,1 47439U 21006AC  23276.41802533  .00035596  00000+0  11453-2 0  9995,2 47439  97.3720 333.4333 0009147  63.3144 296.9033 15.32108564149237,15.32108564,0.0009147,LEO
47440,AII-CHARLIE,2021,94.0,9.0,+,97.37,Active,1,LEO,USA,Lithuania,Commercial,Communications,Falcon,1 47440U 21006AD  23276.38301156  .00034949  00000+0  11303-2 0  9993,2 47440  97.3725 333.3496 0009025  66.3801 293.8387 15.31947509149227,15.31947509,0.0009025,LEO
47442,SPACEBEE-63,2021,93.96,-1.0,+,97.38,Active,0,LEO,USA,USA,Unknown,Unknown,Falcon,1 47442U 21006AF  23276.10732828  .00046450  00000+0  14705-2 0  9998,2 47442  97.3758 332.3142 0005173  85.2292 274.9541 15.32593602149084,15.32593602,0.0005173,LEO
47445,SOMP2B,2021,94.28,3.0,+,97.37,Active,1,LEO,USA,Germany,Civil,Space Science,Falcon,1 47445U 21006AJ  23276.13201175  .00027292  00000+0  10176-2 0  9991,2 47445  97.3676 330.9555 0010203  71.7771 288.4578 15.27350947149076,15.27350947,0.0010203,LEO
47446,KEPLER-12 (BOBA),2021,94.5,9.0,+,97.38,Active,1,LEO,USA,Canada,Commercial,Communications,Falcon,1 47446U 21006AK  23276.42841573  .00014801  00000+0  61600-3 0  9997,2 47446  97.3771 331.6008 0010583  66.7468 293.4882 15.23801646149091,15.23801646,0.0010583,LEO
47448,CUBEL,2021,94.89,5.0,+,97.38,Active,1,LEO,USA,Germany,Government,Technology Development,Falcon,1 47448U 21006AM  23276.39578922  .00007161  00000+0  35865-3 0  9995,2 47448  97.3836 329.3340 0012957  80.8990 279.3710 15.17606318148872,15.17606318,0.0012957,LEO
47450,LEMUR-2-NEVA,2021,93.14,10.0,+,97.38,Active,1,LEO,USA,USA,Commercial,Earth Observation,Falcon,1 47450U 21006AP  23276.12990257  .00102460  00000+0  20756-2 0  9998,2 47450  97.3770 337.6204 0005354  67.7684 292.4132 15.46018593149420,15.46018593,0.0005354,LEO
47452,FLOCK 4S-22,2021,93.89,4.0,+,97.38,Active,1,LEO,USA,USA,Commercial,Earth Observation,Falcon,1 47452U 21006AR  23276.12117402  .00024304  00000+0  74623-3 0  9996,2 47452  97.3784 334.9137 0008454  57.3402 302.8655 15.33689283149252,15.33689283,0.0008454,LEO
47453,LEMUR-2-SAOIRSEDH5GUO,2021,92.83,10.0,+,97.38,Active,1,LEO,USA,USA,Commercial,Earth Observation,Falcon,1 47453U 21006AS  23276.54980477  .00132441  00000+0  22279-2 0  9994,2 47453  97.3815 339.2315 0003655  66.8652 293.2985 15.51253377149546,15.51253377,0.0003655,LEO
47454,KEPLER-13 (LUCKY),2021,93.71,9.0,+,97.37,Active,1,LEO,USA,Canada,Commercial,Communications,Falcon,1 47454U 21006AT  23276.43189050  .00051064  00000+0  14210-2 0  9998,2 47454  97.3698 334.2709 0007092  60.7203 299.4750 15.36634061149298,15.36634061,0.0007092,LEO
47456,FLOCK 4S-21,2021,93.89,4.0,+,97.38,Active,1,LEO,USA,USA,Commercial,Earth Observation,Falcon,1 47456U 21006AV  23276.12959306  .00028145  00000+0  86228-3 0  9998,2 47456  97.3776 334.9756 0008268  59.3660 300.8397 15.33729438149253,15.33729438,0.0008268,LEO
47457,LEMUR-2-NALLYWACKER,2021,92.78,10.0,+,97.38,Active,1,LEO,USA,USA,Commercial,Earth Observation,Falcon,1 47457U 21006AW  23276.14014512  .00149633  00000+0  24353-2 0  9998,2 47457  97.3796 338.8293 0003786  66.0212 294.1436 15.52118679149500,15.52118679,0.0003786,LEO
47458,IDEASSAT,2021,94.34,-1.0,+,97.38,Active,0,LEO,USA,Taiwan,Unknown,Unknown,Falcon,1 47458U 21006AX  23276.42663691  .00021959  00000+0  84230-3 0  9999,2 47458  97.3772 332.0464 0009653  70.5782 289.6499 15.26460912149095,15.26460912,0.0009653,LEO
47459,SPACEBEE-55,2021,93.72,2.0,+,97.37,Active,1,LEO,USA,USA,Commercial,Communications,Falcon,1 47459U 21006AY  23276.42806957  .00049243  00000+0  13797-2 0  9999,2 47459  97.3681 334.1872 0008172  68.5634 291.6481 15.36421733149306,15.36421733,0.0008172,LEO
47461,KEPLER-15 (SUDORMRF),2021,93.88,9.0,+,97.37,Active,1,LEO,USA,Canada,Commercial,Communications,Falcon,1 47461U 21006BA  23276.42252890  .00045538  00000+0  13841-2 0  9996,2 47461  97.3715 332.5989 0006469  82.4573 277.7405 15.33889807149175,15.33889807,0.0006469,LEO
47462,FLOCK 4S-11,2021,94.71,4.0,+,97.38,Active,1,LEO,USA,USA,Commercial,Earth Observation,Falcon,1 47462U 21006BB  23276.58452359  .00010469  00000+0  48203-3 0  9992,2 47462  97.3765 328.7433 0008537  93.0510 267.1703 15.20456811148915,15.20456811,0.0008537,LEO
47465,SPACEBEE-57,2021,93.97,2.0,+,97.37,Active,1,LEO,USA,USA,Commercial,Communications,Falcon,1 47465U 21006BE  23276.39621721  .00041246  00000+0  13135-2 0  9997,2 47465  97.3703 331.7920 0004980  89.1877 270.9936 15.32433696149128,15.32433696,0.000498,LEO
47469,FLOCK 4S-33,2021,93.91,4.0,+,97.37,Active,1,LEO,USA,USA,Commercial,Earth Observation,Falcon,1 47469U 21006BJ  23276.16365689  .00023424  00000+0  72750-3 0  9991,2 47469  97.3727 334.0250 0005166  70.4263 289.7537 15.33352571149239,15.33352571,0.0005166,LEO
47471,FLOCK 4S-12,2021,93.89,4.0,+,97.38,Active,1,LEO,USA,USA,Commercial,Earth Observation,Falcon,1 47471U 21006BL  23276.61381836  .00024824  00000+0  76135-3 0  9992,2 47471  97.3750 334.8973 0006826  77.0434 283.1571 15.33731838149306,15.33731838,0.0006826,LEO
47472,FLOCK 4S-13,2021,93.86,4.0,+,97.38,Active,1,LEO,USA,USA,Commercial,Earth Observation,Falcon,1 47472U 21006BM  23276.43206173  .00027153  00000+0  81814-3 0  9991,2 47472  97.3768 335.1594 0006441  70.9528 289.2412 15.34278674149281,15.34278674,0.0006441,LEO
47474,FLOCK 4S-8,2021,93.07,4.0,+,97.36,Active,1,LEO,USA,USA,Commercial,Earth Observation,Falcon,1 47474U 21006BP  23276.46827454  .00050046  00000+0  98208-3 0  9999,2 47474  97.3627 335.9795 0006164  81.8105 278.3844 15.47162450149413,15.4716245,0.0006164,LEO
47475,FLOCK 4S-31,2021,93.27,4.0,+,97.37,Active,1,LEO,USA,USA,Commercial,Earth Observation,Falcon,1 47475U 21006BQ  23276.11858845  .00043615  00000+0  95520-3 0  9998,2 47475  97.3700 336.6891 0005015  62.2517 297.9239 15.43976383149425,15.43976383,0.0005015,LEO
47476,KEPLER-8 (AMAROK),2021,93.93,9.0,+,97.38,Active,1,LEO,USA,Canada,Commercial,Communications,Falcon,1 47476U 21006BR  23276.61377082  .00044808  00000+0  13976-2 0  9992,2 47476  97.3800 333.8647 0007201  84.0287 276.1776 15.33065486149203,15.33065486,0.0007201,LEO
47477,FLOCK 4S-34,2021,93.91,4.0,+,97.38,Active,1,LEO,USA,USA,Commercial,Earth Observation,Falcon,1 47477U 21006BS  23276.47060206  .00022313  00000+0  69074-3 0  9992,2 47477  97.3770 334.9290 0005788  70.9396 289.2473 15.33464086149285,15.33464086,0.0005788,LEO
